{"type": "FeatureCollection", "features": [{"type": "Feature", "properties": {"norad_id": 32275, "name": "COSMOS 2433 (720)", "group": "glo-ops", "lat": -32.62645015069281, "lon": 159.24990357555217, "alt_km": 19122.815433016764, "timestamp": "2025-12-05T20:43:02.316371+00:00", "meta": {"OBJECT_NAME": "COSMOS 2433 (720)", "OBJECT_ID": "2007-052A", "EPOCH": "2025-12-05T02:41:16.124352", "MEAN_MOTION": 2.13103909, "ECCENTRICITY": 0.00055104, "INCLINATION": 65.6874, "RA_OF_ASC_NODE": 322.462, "ARG_OF_PERICENTER": 252.9111, "MEAN_ANOMALY": 107.0273, "EPHEMERIS_TYPE": 0, "CLASSIFICATION_TYPE": "U", "NORAD_CAT_ID": 32275, "ELEMENT_SET_NO": 999, "REV_AT_EPOCH": 14092, "BSTAR": 0, "MEAN_MOTION_DOT": -4.7e-07, "MEAN_MOTION_DDOT": 0}, "tle": {"line1": "1 32275U 07052A   25339.11199218 -.00000047  00000+0  00000+0 0  9997", "line2": "2 32275  65.6874 322.4620 0005510 252.9111 107.0273  2.13103909140922"}}, "geometry": {"type": "Point", "coordinates": [159.24990357555217, -32.62645015069281]}}, {"type": "Feature", "properties": {"norad_id": 32276, "name": "COSMOS 2432 (719)", "group": "glo-ops", "lat": 17.491358365656936, "lon": 134.36487483631402, "alt_km": 19153.15174331659, "timestamp": "2025-12-05T20:43:02.316394+00:00", "meta": {"OBJECT_NAME": "COSMOS 2432 (719)", "OBJECT_ID": "2007-052B", "EPOCH": "2025-12-04T17:08:15.006912", "MEAN_MOTION": 2.13103047, "ECCENTRICITY": 0.00112577, "INCLINATION": 65.7035, "RA_OF_ASC_NODE": 322.5994, "ARG_OF_PERICENTER": 311.684, "MEAN_ANOMALY": 47.4656, "EPHEMERIS_TYPE": 0, "CLASSIFICATION_TYPE": "U", "NORAD_CAT_ID": 32276, "ELEMENT_SET_NO": 999, "REV_AT_EPOCH": 14093, "BSTAR": 0, "MEAN_MOTION_DOT": -4.6e-07, "MEAN_MOTION_DDOT": 0}, "tle": {"line1": "1 32276U 07052B   25338.71406258 -.00000046  00000+0  00000+0 0  9997", "line2": "2 32276  65.7035 322.5994 0011257 311.6840  47.4656  2.13103047140931"}}, "geometry": {"type": "Point", "coordinates": [134.36487483631402, 17.491358365656936]}}, {"type": "Feature", "properties": {"norad_id": 32393, "name": "COSMOS 2434 (721)", "group": "glo-ops", "lat": 59.56540407711397, "lon": -36.55873855310315, "alt_km": 19114.4734536339, "timestamp": "2025-12-05T20:43:02.316409+00:00", "meta": {"OBJECT_NAME": "COSMOS 2434 (721)", "OBJECT_ID": "2007-065A", "EPOCH": "2025-12-01T06:30:38.524608", "MEAN_MOTION": 2.13101181, "ECCENTRICITY": 0.00043375, "INCLINATION": 64.3147, "RA_OF_ASC_NODE": 198.5905, "ARG_OF_PERICENTER": 70.7489, "MEAN_ANOMALY": 113.3938, "EPHEMERIS_TYPE": 0, "CLASSIFICATION_TYPE": "U", "NORAD_CAT_ID": 32393, "ELEMENT_SET_NO": 999, "REV_AT_EPOCH": 13955, "BSTAR": 0, "MEAN_MOTION_DOT": 1.02e-06, "MEAN_MOTION_DDOT": 0}, "tle": {"line1": "1 32393U 07065A   25335.27127922  .00000102  00000+0  00000+0 0  9999", "line2": "2 32393  64.3147 198.5905 0004337  70.7489 113.3938  2.13101181139555"}}, "geometry": {"type": "Point", "coordinates": [-36.55873855310315, 59.56540407711397]}}, {"type": "Feature", "properties": {"norad_id": 32395, "name": "COSMOS 2436 (723)", "group": "glo-ops", "lat": -51.16838233125476, "lon": 55.210474352918546, "alt_km": 19164.508389350456, "timestamp": "2025-12-05T20:43:02.316422+00:00", "meta": {"OBJECT_NAME": "COSMOS 2436 (723)", "OBJECT_ID": "2007-065C", "EPOCH": "2025-12-05T01:59:21.660576", "MEAN_MOTION": 2.13099981, "ECCENTRICITY": 0.00177317, "INCLINATION": 64.3234, "RA_OF_ASC_NODE": 198.532, "ARG_OF_PERICENTER": 8.9856, "MEAN_ANOMALY": 352.3973, "EPHEMERIS_TYPE": 0, "CLASSIFICATION_TYPE": "U", "NORAD_CAT_ID": 32395, "ELEMENT_SET_NO": 999, "REV_AT_EPOCH": 13959, "BSTAR": 0, "MEAN_MOTION_DOT": 9.2e-07, "MEAN_MOTION_DDOT": 0}, "tle": {"line1": "1 32395U 07065C   25339.08288959  .00000092  00000+0  00000+0 0  9990", "line2": "2 32395  64.3234 198.5320 0017731   8.9856 352.3973  2.13099981139590"}}, "geometry": {"type": "Point", "coordinates": [55.210474352918546, -51.16838233125476]}}, {"type": "Feature", "properties": {"norad_id": 36111, "name": "COSMOS 2456 (730)", "group": "glo-ops", "lat": -64.24871856670775, "lon": -26.434714024354452, "alt_km": 19130.485655788427, "timestamp": "2025-12-05T20:43:02.316435+00:00", "meta": {"OBJECT_NAME": "COSMOS 2456 (730)", "OBJECT_ID": "2009-070A", "EPOCH": "2025-12-02T04:31:21.819072", "MEAN_MOTION": 2.13103415, "ECCENTRICITY": 0.0002798, "INCLINATION": 64.8943, "RA_OF_ASC_NODE": 77.6987, "ARG_OF_PERICENTER": 298.3251, "MEAN_ANOMALY": 26.4531, "EPHEMERIS_TYPE": 0, "CLASSIFICATION_TYPE": "U", "NORAD_CAT_ID": 36111, "ELEMENT_SET_NO": 999, "REV_AT_EPOCH": 12422, "BSTAR": 0, "MEAN_MOTION_DOT": -2.2e-07, "MEAN_MOTION_DDOT": 0}, "tle": {"line1": "1 36111U 09070A   25336.18844698 -.00000022  00000+0  00000+0 0  9998", "line2": "2 36111  64.8943  77.6987 0002798 298.3251  26.4531  2.13103415124220"}}, "geometry": {"type": "Point", "coordinates": [-26.434714024354452, -64.24871856670775]}}, {"type": "Feature", "properties": {"norad_id": 36112, "name": "COSMOS 2457 (733)", "group": "glo-ops", "lat": 29.65106787992689, "lon": 92.88815094684254, "alt_km": 19133.511396113627, "timestamp": "2025-12-05T20:43:02.316446+00:00", "meta": {"OBJECT_NAME": "COSMOS 2457 (733)", "OBJECT_ID": "2009-070B", "EPOCH": "2025-12-04T10:10:53.328576", "MEAN_MOTION": 2.13100784, "ECCENTRICITY": 0.00048679, "INCLINATION": 64.8808, "RA_OF_ASC_NODE": 77.4701, "ARG_OF_PERICENTER": 156.7423, "MEAN_ANOMALY": 212.4815, "EPHEMERIS_TYPE": 0, "CLASSIFICATION_TYPE": "U", "NORAD_CAT_ID": 36112, "ELEMENT_SET_NO": 999, "REV_AT_EPOCH": 12428, "BSTAR": 0, "MEAN_MOTION_DOT": -2.6e-07, "MEAN_MOTION_DDOT": 0}, "tle": {"line1": "1 36112U 09070B   25338.42422834 -.00000026  00000+0  00000+0 0  9996", "line2": "2 36112  64.8808  77.4701 0004867 156.7423 212.4815  2.13100784124284"}}, "geometry": {"type": "Point", "coordinates": [92.88815094684254, 29.65106787992689]}}, {"type": "Feature", "properties": {"norad_id": 36402, "name": "COSMOS 2460 (732)", "group": "glo-ops", "lat": 29.336589082201144, "lon": -24.17853435612741, "alt_km": 19130.11757430314, "timestamp": "2025-12-05T20:43:02.316458+00:00", "meta": {"OBJECT_NAME": "COSMOS 2460 (732)", "OBJECT_ID": "2010-007C", "EPOCH": "2025-12-01T05:49:09.827040", "MEAN_MOTION": 2.13106053, "ECCENTRICITY": 0.00028009, "INCLINATION": 65.536, "RA_OF_ASC_NODE": 321.162, "ARG_OF_PERICENTER": 269.9918, "MEAN_ANOMALY": 177.6167, "EPHEMERIS_TYPE": 0, "CLASSIFICATION_TYPE": "U", "NORAD_CAT_ID": 36402, "ELEMENT_SET_NO": 999, "REV_AT_EPOCH": 12251, "BSTAR": 0, "MEAN_MOTION_DOT": -2.6e-07, "MEAN_MOTION_DDOT": 0}, "tle": {"line1": "1 36402U 10007C   25335.24247485 -.00000026  00000+0  00000+0 0  9994", "line2": "2 36402  65.5360 321.1620 0002800 269.9918 177.6167  2.13106053122518"}}, "geometry": {"type": "Point", "coordinates": [-24.17853435612741, 29.336589082201144]}}, {"type": "Feature", "properties": {"norad_id": 37867, "name": "COSMOS 2476 (744)", "group": "glo-ops", "lat": 7.10936009209686, "lon": -103.89797083886634, "alt_km": 19100.069653631774, "timestamp": "2025-12-05T20:43:02.316469+00:00", "meta": {"OBJECT_NAME": "COSMOS 2476 (744)", "OBJECT_ID": "2011-064A", "EPOCH": "2025-12-02T19:57:36.313920", "MEAN_MOTION": 2.13101261, "ECCENTRICITY": 0.00239603, "INCLINATION": 65.1573, "RA_OF_ASC_NODE": 79.5068, "ARG_OF_PERICENTER": 233.4935, "MEAN_ANOMALY": 133.1658, "EPHEMERIS_TYPE": 0, "CLASSIFICATION_TYPE": "U", "NORAD_CAT_ID": 37867, "ELEMENT_SET_NO": 999, "REV_AT_EPOCH": 10958, "BSTAR": 0, "MEAN_MOTION_DOT": -2.2e-07, "MEAN_MOTION_DDOT": 0}, "tle": {"line1": "1 37867U 11064A   25336.83167030 -.00000022  00000+0  00000+0 0  9993", "line2": "2 37867  65.1573  79.5068 0023960 233.4935 133.1658  2.13101261109581"}}, "geometry": {"type": "Point", "coordinates": [-103.89797083886634, 7.10936009209686]}}, {"type": "Feature", "properties": {"norad_id": 37868, "name": "COSMOS 2477 (745)", "group": "glo-ops", "lat": -5.942791815939116, "lon": 76.72748104316481, "alt_km": 19157.647629009185, "timestamp": "2025-12-05T20:43:02.316491+00:00", "meta": {"OBJECT_NAME": "COSMOS 2477 (745)", "OBJECT_ID": "2011-064B", "EPOCH": "2025-12-01T05:34:43.743072", "MEAN_MOTION": 2.1310269, "ECCENTRICITY": 0.00209845, "INCLINATION": 65.1625, "RA_OF_ASC_NODE": 79.6383, "ARG_OF_PERICENTER": 233.8301, "MEAN_ANOMALY": 166.8442, "EPHEMERIS_TYPE": 0, "CLASSIFICATION_TYPE": "U", "NORAD_CAT_ID": 37868, "ELEMENT_SET_NO": 999, "REV_AT_EPOCH": 10954, "BSTAR": 0, "MEAN_MOTION_DOT": -1.2e-07, "MEAN_MOTION_DDOT": 0}, "tle": {"line1": "1 37868U 11064B   25335.23245073 -.00000012  00000+0  00000+0 0  9990", "line2": "2 37868  65.1625  79.6383 0020984 233.8301 166.8442  2.13102690109542"}}, "geometry": {"type": "Point", "coordinates": [76.72748104316481, -5.942791815939116]}}, {"type": "Feature", "properties": {"norad_id": 37869, "name": "COSMOS 2475 (743)", "group": "glo-ops", "lat": -44.467147359226914, "lon": 52.52751999911475, "alt_km": 19103.365802681896, "timestamp": "2025-12-05T20:43:02.316516+00:00", "meta": {"OBJECT_NAME": "COSMOS 2475 (743)", "OBJECT_ID": "2011-064C", "EPOCH": "2025-12-02T03:10:18.719904", "MEAN_MOTION": 2.13101359, "ECCENTRICITY": 0.0026048, "INCLINATION": 65.1701, "RA_OF_ASC_NODE": 79.6277, "ARG_OF_PERICENTER": 248.2415, "MEAN_ANOMALY": 78.6584, "EPHEMERIS_TYPE": 0, "CLASSIFICATION_TYPE": "U", "NORAD_CAT_ID": 37869, "ELEMENT_SET_NO": 999, "REV_AT_EPOCH": 10956, "BSTAR": 0, "MEAN_MOTION_DOT": -1.8e-07, "MEAN_MOTION_DDOT": 0}, "tle": {"line1": "1 37869U 11064C   25336.13216111 -.00000018  00000+0  00000+0 0  9998", "line2": "2 37869  65.1701  79.6277 0026048 248.2415  78.6584  2.13101359109563"}}, "geometry": {"type": "Point", "coordinates": [52.52751999911475, -44.467147359226914]}}]}